start=new Date('2023-01-16T00:00:00.000Z').valueOf();
sats=[{"SEMIMAJOR_AXIS":"6917.869","COUNTRY_CODE":"US","PERIOD":"95.437","REF_FRAME":"TEME","ECCENTRICITY":"0.00025520","OBJECT_TYPE":"PAYLOAD","MEAN_MOTION_DDOT":"0.0000000000000","ELEMENT_SET_NO":"999","MEAN_MOTION":"15.08843852","MEAN_MOTION_DOT":"-0.00000713","ARG_OF_PERICENTER":"57.9969","DECAY_DATE":null,"LAUNCH_DATE":"2022-04-29","OBJECT_NAME":"STARLINK-3792","EPHEMERIS_TYPE":"0","CLASSIFICATION_TYPE":"U","TLE_LINE2":"2 52339  53.2141 326.5842 0002552  57.9969 302.1270 15.08843852 42206","RA_OF_ASC_NODE":"326.5842","TLE_LINE1":"1 52339U 22045J   23015.82483251 -.00000713  00000-0 -26699-4 0  9998","SITE":"AFETR","CENTER_NAME":"EARTH","MEAN_ELEMENT_THEORY":"SGP4","BSTAR":"-0.00002669900000","RCS_SIZE":"LARGE","NORAD_CAT_ID":"52339","MEAN_ANOMALY":"302.1270","REV_AT_EPOCH":"4220","FILE":"3748322","EPOCH":"2023-01-15T19:47:45.528864","APOAPSIS":"541.499","OBJECT_ID":"2022-045J","PERIAPSIS":"537.968","INCLINATION":"53.2141","TIME_SYSTEM":"UTC","GP_ID":"223148950"},{"SEMIMAJOR_AXIS":"6917.855","COUNTRY_CODE":"US","PERIOD":"95.437","REF_FRAME":"TEME","MEAN_MOTION_DDOT":"0.0000000000000","OBJECT_TYPE":"PAYLOAD","ECCENTRICITY":"0.00018060","ELEMENT_SET_NO":"999","MEAN_MOTION":"15.08848455","MEAN_MOTION_DOT":"0.00010414","ARG_OF_PERICENTER":"30.8876","DECAY_DATE":null,"OBJECT_NAME":"STARLINK-3818","LAUNCH_DATE":"2022-04-29","EPHEMERIS_TYPE":"0","CLASSIFICATION_TYPE":"U","TLE_LINE2":"2 52340  53.2178 316.4418 0001806  30.8876 329.2222 15.08848455 42338","RA_OF_ASC_NODE":"316.4418","TLE_LINE1":"1 52340U 22045K   23015.85423746  .00010414  00000-0  67125-3 0  9991","SITE":"AFETR","MEAN_ELEMENT_THEORY":"SGP4","CENTER_NAME":"EARTH","BSTAR":"0.00067125000000","RCS_SIZE":"LARGE","MEAN_ANOMALY":"329.2222","NORAD_CAT_ID":"52340","REV_AT_EPOCH":"4233","FILE":"3748322","APOAPSIS":"540.969","EPOCH":"2023-01-15T20:30:06.116544","OBJECT_ID":"2022-045K","INCLINATION":"53.2178","PERIAPSIS":"538.470","TIME_SYSTEM":"UTC","GP_ID":"223150200"},{"BSTAR":"0.00026585000000","CENTER_NAME":"EARTH","MEAN_ELEMENT_THEORY":"SGP4","RA_OF_ASC_NODE":"326.5668","TLE_LINE1":"1 52341U 22045L   23015.82851357  .00003944  00000-0  26585-3 0  9997","SITE":"AFETR","REV_AT_EPOCH":"4220","NORAD_CAT_ID":"52341","MEAN_ANOMALY":"320.1743","RCS_SIZE":"LARGE","APOAPSIS":"541.256","OBJECT_ID":"2022-045L","EPOCH":"2023-01-15T19:53:03.572448","FILE":"3748322","GP_ID":"223150449","TIME_SYSTEM":"UTC","PERIAPSIS":"538.305","INCLINATION":"53.2159","REF_FRAME":"TEME","COUNTRY_CODE":"US","SEMIMAJOR_AXIS":"6917.916","PERIOD":"95.438","MEAN_MOTION":"15.08828486","ELEMENT_SET_NO":"999","ECCENTRICITY":"0.00021330","OBJECT_TYPE":"PAYLOAD","MEAN_MOTION_DDOT":"0.0000000000000","LAUNCH_DATE":"2022-04-29","OBJECT_NAME":"STARLINK-3843","DECAY_DATE":null,"ARG_OF_PERICENTER":"39.9405","MEAN_MOTION_DOT":"0.00003944","TLE_LINE2":"2 52341  53.2159 326.5668 0002133  39.9405 320.1743 15.08828486 42205","CLASSIFICATION_TYPE":"U","EPHEMERIS_TYPE":"0"},{"ELEMENT_SET_NO":"999","MEAN_MOTION":"15.08853442","MEAN_MOTION_DDOT":"0.0000000000000","OBJECT_TYPE":"PAYLOAD","ECCENTRICITY":"0.00025530","REF_FRAME":"TEME","COUNTRY_CODE":"US","SEMIMAJOR_AXIS":"6917.839","PERIOD":"95.437","TLE_LINE2":"2 52343  53.2120 326.4325 0002553  48.8517 311.2695 15.08853442 42211","EPHEMERIS_TYPE":"0","CLASSIFICATION_TYPE":"U","OBJECT_NAME":"STARLINK-3849","LAUNCH_DATE":"2022-04-29","ARG_OF_PERICENTER":"48.8517","MEAN_MOTION_DOT":"0.00016406","DECAY_DATE":null,"MEAN_ANOMALY":"311.2695","NORAD_CAT_ID":"52343","REV_AT_EPOCH":"4221","RCS_SIZE":"LARGE","BSTAR":"0.00104610000000","TLE_LINE1":"1 52343U 22045N   23015.86068060  .00016406  00000-0  10461-2 0  9996","SITE":"AFETR","RA_OF_ASC_NODE":"326.4325","MEAN_ELEMENT_THEORY":"SGP4","CENTER_NAME":"EARTH","TIME_SYSTEM":"UTC","GP_ID":"223149449","INCLINATION":"53.2120","PERIAPSIS":"537.938","EPOCH":"2023-01-15T20:39:22.803840","APOAPSIS":"541.470","OBJECT_ID":"2022-045N","FILE":"3748322"},{"TIME_SYSTEM":"UTC","GP_ID":"223149950","PERIAPSIS":"538.848","INCLINATION":"53.2167","EPOCH":"2023-01-15T20:35:24.035712","APOAPSIS":"540.651","OBJECT_ID":"2022-045Q","FILE":"3748322","NORAD_CAT_ID":"52345","MEAN_ANOMALY":"292.5132","REV_AT_EPOCH":"4233","RCS_SIZE":"LARGE","BSTAR":"-0.00010658000000","RA_OF_ASC_NODE":"316.4316","TLE_LINE1":"1 52345U 22045Q   23015.85791708 -.00001984  00000-0 -10658-3 0  9995","SITE":"AFETR","CENTER_NAME":"EARTH","MEAN_ELEMENT_THEORY":"SGP4","TLE_LINE2":"2 52345  53.2167 316.4316 0001303  67.5998 292.5132 15.08838690 42334","EPHEMERIS_TYPE":"0","CLASSIFICATION_TYPE":"U","LAUNCH_DATE":"2022-04-29","OBJECT_NAME":"STARLINK-3852","MEAN_MOTION_DOT":"-0.00001984","ARG_OF_PERICENTER":"67.5998","DECAY_DATE":null,"ELEMENT_SET_NO":"999","MEAN_MOTION":"15.08838690","ECCENTRICITY":"0.00013030","MEAN_MOTION_DDOT":"0.0000000000000","OBJECT_TYPE":"PAYLOAD","REF_FRAME":"TEME","SEMIMAJOR_AXIS":"6917.884","COUNTRY_CODE":"US","PERIOD":"95.438"},{"TLE_LINE2":"2 52346  53.2188 316.8080 0001971  63.5498 296.5696 15.08859124 42336","EPHEMERIS_TYPE":"0","CLASSIFICATION_TYPE":"U","LAUNCH_DATE":"2022-04-29","OBJECT_NAME":"STARLINK-3812","MEAN_MOTION_DOT":"0.00013435","ARG_OF_PERICENTER":"63.5498","DECAY_DATE":null,"ELEMENT_SET_NO":"999","MEAN_MOTION":"15.08859124","ECCENTRICITY":"0.00019710","MEAN_MOTION_DDOT":"0.0000000000000","OBJECT_TYPE":"PAYLOAD","REF_FRAME":"TEME","PERIOD":"95.436","COUNTRY_CODE":"US","SEMIMAJOR_AXIS":"6917.822","TIME_SYSTEM":"UTC","GP_ID":"223148701","PERIAPSIS":"538.323","INCLINATION":"53.2188","APOAPSIS":"541.050","OBJECT_ID":"2022-045R","EPOCH":"2023-01-15T18:33:31.211424","FILE":"3748322","NORAD_CAT_ID":"52346","MEAN_ANOMALY":"296.5696","REV_AT_EPOCH":"4233","RCS_SIZE":"LARGE","BSTAR":"0.00086014000000","TLE_LINE1":"1 52346U 22045R   23015.77327791  .00013435  00000-0  86014-3 0  9995","SITE":"AFETR","RA_OF_ASC_NODE":"316.8080","CENTER_NAME":"EARTH","MEAN_ELEMENT_THEORY":"SGP4"},{"OBJECT_ID":"2022-045T","APOAPSIS":"540.532","EPOCH":"2023-01-15T18:22:55.391232","FILE":"3748322","TIME_SYSTEM":"UTC","GP_ID":"223150201","INCLINATION":"53.2138","PERIAPSIS":"538.923","BSTAR":"0.00068487000000","SITE":"AFETR","TLE_LINE1":"1 52348U 22045T   23015.76591888  .00010630  00000-0  68487-3 0  9994","RA_OF_ASC_NODE":"316.8480","MEAN_ELEMENT_THEORY":"SGP4","CENTER_NAME":"EARTH","MEAN_ANOMALY":"290.9903","NORAD_CAT_ID":"52348","REV_AT_EPOCH":"4233","RCS_SIZE":"LARGE","OBJECT_NAME":"STARLINK-3829","LAUNCH_DATE":"2022-04-29","MEAN_MOTION_DOT":"0.00010630","ARG_OF_PERICENTER":"69.1214","DECAY_DATE":null,"TLE_LINE2":"2 52348  53.2138 316.8480 0001163  69.1214 290.9903 15.08845957 42336","EPHEMERIS_TYPE":"0","CLASSIFICATION_TYPE":"U","REF_FRAME":"TEME","COUNTRY_CODE":"US","PERIOD":"95.437","SEMIMAJOR_AXIS":"6917.862","ELEMENT_SET_NO":"999","MEAN_MOTION":"15.08845957","MEAN_MOTION_DDOT":"0.0000000000000","OBJECT_TYPE":"PAYLOAD","ECCENTRICITY":"0.00011630"},{"FILE":"3748322","EPOCH":"2023-01-15T19:53:00.091392","APOAPSIS":"540.082","OBJECT_ID":"2022-045V","PERIAPSIS":"539.151","INCLINATION":"53.2145","TIME_SYSTEM":"UTC","GP_ID":"223149200","TLE_LINE1":"1 52350U 22045V   23015.82847328  .00025869  00000-0  16356-2 0  9994","RA_OF_ASC_NODE":"316.5587","SITE":"AFETR","CENTER_NAME":"EARTH","MEAN_ELEMENT_THEORY":"SGP4","BSTAR":"0.00163560000000","RCS_SIZE":"LARGE","NORAD_CAT_ID":"52350","MEAN_ANOMALY":"6.6234","REV_AT_EPOCH":"4234","ARG_OF_PERICENTER":"353.4750","MEAN_MOTION_DOT":"0.00025869","DECAY_DATE":null,"LAUNCH_DATE":"2022-04-29","OBJECT_NAME":"STARLINK-3754","EPHEMERIS_TYPE":"0","CLASSIFICATION_TYPE":"U","TLE_LINE2":"2 52350  53.2145 316.5587 0000673 353.4750   6.6234 15.08882227 42342","SEMIMAJOR_AXIS":"6917.751","COUNTRY_CODE":"US","PERIOD":"95.435","REF_FRAME":"TEME","ECCENTRICITY":"0.00006730","MEAN_MOTION_DDOT":"0.0000000000000","OBJECT_TYPE":"PAYLOAD","ELEMENT_SET_NO":"999","MEAN_MOTION":"15.08882227"},{"BSTAR":"0.00017209000000","RA_OF_ASC_NODE":"316.5850","TLE_LINE1":"1 52353U 22045Y   23015.82479592  .00002452  00000-0  17209-3 0  9993","SITE":"AFETR","MEAN_ELEMENT_THEORY":"SGP4","CENTER_NAME":"EARTH","MEAN_ANOMALY":"298.5930","NORAD_CAT_ID":"52353","REV_AT_EPOCH":"4234","RCS_SIZE":"LARGE","OBJECT_ID":"2022-045Y","APOAPSIS":"541.265","EPOCH":"2023-01-15T19:47:42.367488","FILE":"3748322","TIME_SYSTEM":"UTC","GP_ID":"223149702","INCLINATION":"53.2151","PERIAPSIS":"538.176","REF_FRAME":"TEME","PERIOD":"95.437","COUNTRY_CODE":"US","SEMIMAJOR_AXIS":"6917.856","ELEMENT_SET_NO":"999","MEAN_MOTION":"15.08848066","MEAN_MOTION_DDOT":"0.0000000000000","OBJECT_TYPE":"PAYLOAD","ECCENTRICITY":"0.00022330","OBJECT_NAME":"STARLINK-3807","LAUNCH_DATE":"2022-04-29","ARG_OF_PERICENTER":"61.5287","MEAN_MOTION_DOT":"0.00002452","DECAY_DATE":null,"TLE_LINE2":"2 52353  53.2151 316.5850 0002233  61.5287 298.5930 15.08848066 42349","EPHEMERIS_TYPE":"0","CLASSIFICATION_TYPE":"U"},{"FILE":"3748322","EPOCH":"2023-01-15T19:21:13.329792","APOAPSIS":"541.350","OBJECT_ID":"2022-045Z","PERIAPSIS":"538.065","INCLINATION":"53.2173","TIME_SYSTEM":"UTC","GP_ID":"223149951","RA_OF_ASC_NODE":"316.6746","TLE_LINE1":"1 52354U 22045Z   23015.80640428 -.00002141  00000-0 -11639-3 0  9998","SITE":"AFETR","CENTER_NAME":"EARTH","MEAN_ELEMENT_THEORY":"SGP4","BSTAR":"-0.00011639000000","RCS_SIZE":"LARGE","NORAD_CAT_ID":"52354","MEAN_ANOMALY":"313.6154","REV_AT_EPOCH":"4234","ARG_OF_PERICENTER":"46.5035","MEAN_MOTION_DOT":"-0.00002141","DECAY_DATE":null,"LAUNCH_DATE":"2022-04-29","OBJECT_NAME":"STARLINK-3876","EPHEMERIS_TYPE":"0","CLASSIFICATION_TYPE":"U","TLE_LINE2":"2 52354  53.2173 316.6746 0002374  46.5035 313.6154 15.08852306 42348","SEMIMAJOR_AXIS":"6917.843","COUNTRY_CODE":"US","PERIOD":"95.437","REF_FRAME":"TEME","ECCENTRICITY":"0.00023740","OBJECT_TYPE":"PAYLOAD","MEAN_MOTION_DDOT":"0.0000000000000","ELEMENT_SET_NO":"999","MEAN_MOTION":"15.08852306"}];
